{"type":"FeatureCollection","features":[{"type":"Feature","geometry":{"type":"Polygon","coordinates":[[[-122.2567,37.8719],[-122.2571,37.8721],[-122.2572,37.8724],[-122.2572,37.8727],[-122.2576,37.8729],[-122.2579,37.8731],[-122.2583,37.8729],[-122.2587,37.8731],[-122.2589,37.8728],[-122.2592,37.8726],[-122.2593,37.8724],[-122.2597,37.8722],[-122.2597,37.8719],[-122.2596,37.8716],[-122.2594,37.8714],[-122.2592,37.8712],[-122.2589,37.8711],[-122.2587,37.8707],[-122.2583,37.8707],[-122.258,37.871],[-122.2576,37.8709],[-122.2574,37.8712],[-122.2569,37.8713],[-122.2569,37.8716],[-122.257,37.8719]]]},"properties":{"name":"Berkeley","nameEn":"Berkeley","uniCount":1,"avgLat":37.8719,"avgLng":-122.2583,"cityId":"06-berkeley"}},{"type":"Feature","geometry":{"type":"Polygon","coordinates":[[[-121.7606,38.5382],[-121.7606,38.5384],[-121.7608,38.5386],[-121.7609,38.5388],[-121.7611,38.539],[-121.7614,38.5389],[-121.7617,38.5391],[-121.762,38.539],[-121.7623,38.539],[-121.7625,38.5389],[-121.7628,38.5387],[-121.7628,38.5384],[-121.7629,38.5382],[-121.7629,38.5379],[-121.7626,38.5378],[-121.7626,38.5375],[-121.7623,38.5374],[-121.762,38.5372],[-121.7617,38.5374],[-121.7614,38.5373],[-121.7611,38.5373],[-121.7609,38.5376],[-121.7609,38.5378],[-121.7606,38.538],[-121.7607,38.5382]]]},"properties":{"name":"Davis","nameEn":"Davis","uniCount":1,"avgLat":38.5382,"avgLng":-121.7617,"cityId":"06-davis"}},{"type":"Feature","geometry":{"type":"Polygon","coordinates":[[[-117.8428,33.6405],[-117.8426,33.6409],[-117.8429,33.6412],[-117.8431,33.6415],[-117.8436,33.6416],[-117.8439,33.6418],[-117.8443,33.6418],[-117.8448,33.642],[-117.8452,33.6418],[-117.8454,33.6414],[-117.8456,33.6411],[-117.8459,33.6408],[-117.8459,33.6405],[-117.846,33.6401],[-117.8458,33.6398],[-117.8454,33.6396],[-117.8452,33.6392],[-117.8448,33.6391],[-117.8443,33.6392],[-117.8439,33.6392],[-117.8436,33.6395],[-117.8432,33.6396],[-117.8428,33.6398],[-117.8429,33.6402],[-117.8428,33.6405]]]},"properties":{"name":"Irvine","nameEn":"Irvine","uniCount":1,"avgLat":33.6405,"avgLng":-117.8443,"cityId":"06-irvine"}},{"type":"Feature","geometry":{"type":"Polygon","coordinates":[[[-117.2333,32.8801],[-117.2334,32.8803],[-117.2333,32.8805],[-117.2334,32.8806],[-117.2336,32.8808],[-117.2339,32.8807],[-117.2341,32.8809],[-117.2343,32.8808],[-117.2346,32.8808],[-117.2346,32.8805],[-117.2349,32.8805],[-117.235,32.8803],[-117.2349,32.8801],[-117.2348,32.8799],[-117.2348,32.8797],[-117.2348,32.8795],[-117.2345,32.8795],[-117.2343,32.8793],[-117.2341,32.8793],[-117.2339,32.8793],[-117.2336,32.8794],[-117.2336,32.8797],[-117.2335,32.8798],[-117.2334,32.8799],[-117.2332,32.8801]]]},"properties":{"name":"La Jolla","nameEn":"La Jolla","uniCount":1,"avgLat":32.8801,"avgLng":-117.2341,"cityId":"06-la-jolla"}},{"type":"Feature","geometry":{"type":"Polygon","coordinates":[[[-118.3602,34.0464],[-118.3599,34.0473],[-118.3603,34.048],[-118.3608,34.0488],[-118.362,34.0489],[-118.3628,34.0493],[-118.3637,34.0495],[-118.3646,34.049],[-118.3659,34.0495],[-118.3667,34.0488],[-118.367,34.0479],[-118.3678,34.0473],[-118.3674,34.0464],[-118.3673,34.0456],[-118.3674,34.0447],[-118.3663,34.0443],[-118.3659,34.0433],[-118.3647,34.0434],[-118.3637,34.0436],[-118.3627,34.043],[-118.3621,34.044],[-118.3608,34.044],[-118.3602,34.0447],[-118.3595,34.0455],[-118.3598,34.0464]]]},"properties":{"name":"Los Angeles","nameEn":"Los Angeles","uniCount":2,"avgLat":34.0464,"avgLng":-118.3637,"cityId":"06-los-angeles"}},{"type":"Feature","geometry":{"type":"Polygon","coordinates":[[[-120.4189,37.3682],[-120.4187,37.3684],[-120.4189,37.3686],[-120.4192,37.3688],[-120.4194,37.3689],[-120.4196,37.3692],[-120.4199,37.369],[-120.4202,37.369],[-120.4204,37.3689],[-120.4206,37.3688],[-120.4209,37.3687],[-120.4211,37.3684],[-120.4212,37.3682],[-120.4209,37.368],[-120.4209,37.3677],[-120.4208,37.3675],[-120.4204,37.3675],[-120.4202,37.3674],[-120.4199,37.3673],[-120.4196,37.3674],[-120.4193,37.3674],[-120.4191,37.3675],[-120.4189,37.3678],[-120.4187,37.368],[-120.4189,37.3682]]]},"properties":{"name":"Merced","nameEn":"Merced","uniCount":1,"avgLat":37.3682,"avgLng":-120.4199,"cityId":"06-merced"}},{"type":"Feature","geometry":{"type":"Polygon","coordinates":[[[-118.1245,34.1378],[-118.1243,34.138],[-118.1245,34.1382],[-118.1247,34.1383],[-118.1248,34.1385],[-118.1251,34.1385],[-118.1253,34.1386],[-118.1255,34.1385],[-118.1257,34.1384],[-118.1259,34.1383],[-118.126,34.1381],[-118.1262,34.138],[-118.1261,34.1378],[-118.1261,34.1376],[-118.1261,34.1374],[-118.1259,34.1373],[-118.1257,34.1373],[-118.1255,34.1371],[-118.1253,34.1371],[-118.1251,34.137],[-118.1249,34.1372],[-118.1247,34.1373],[-118.1246,34.1375],[-118.1244,34.1376],[-118.1243,34.1378]]]},"properties":{"name":"Pasadena","nameEn":"Pasadena","uniCount":1,"avgLat":34.1378,"avgLng":-118.1253,"cityId":"06-pasadena"}},{"type":"Feature","geometry":{"type":"Polygon","coordinates":[[[-117.326,33.9737],[-117.3259,33.974],[-117.3262,33.9742],[-117.3263,33.9745],[-117.3266,33.9747],[-117.327,33.9747],[-117.3273,33.9747],[-117.3277,33.9748],[-117.328,33.9747],[-117.3284,33.9746],[-117.3284,33.9742],[-117.3284,33.974],[-117.3284,33.9737],[-117.3286,33.9734],[-117.3284,33.9732],[-117.3283,33.9729],[-117.328,33.9726],[-117.3276,33.9726],[-117.3273,33.9725],[-117.327,33.9726],[-117.3266,33.9728],[-117.3265,33.973],[-117.3261,33.9731],[-117.326,33.9734],[-117.3258,33.9737]]]},"properties":{"name":"Riverside","nameEn":"Riverside","uniCount":1,"avgLat":33.9737,"avgLng":-117.3273,"cityId":"06-riverside"}},{"type":"Feature","geometry":{"type":"Polygon","coordinates":[[[-117.0702,32.7729],[-117.0701,32.7735],[-117.0705,32.774],[-117.0709,32.7745],[-117.0715,32.7747],[-117.0721,32.7752],[-117.0728,32.7748],[-117.0735,32.775],[-117.0742,32.7749],[-117.0745,32.7743],[-117.0751,32.774],[-117.0754,32.7735],[-117.0752,32.7729],[-117.0751,32.7724],[-117.0749,32.7719],[-117.0746,32.7714],[-117.0742,32.7709],[-117.0734,32.7709],[-117.0728,32.7708],[-117.0721,32.7708],[-117.0715,32.771],[-117.0711,32.7714],[-117.0702,32.7716],[-117.0703,32.7723],[-117.07,32.7729]]]},"properties":{"name":"San Diego","nameEn":"San Diego","uniCount":1,"avgLat":32.7729,"avgLng":-117.0728,"cityId":"06-san-diego"}},{"type":"Feature","geometry":{"type":"Polygon","coordinates":[[[-121.8789,37.3352],[-121.8788,37.3357],[-121.8789,37.3362],[-121.8796,37.3364],[-121.88,37.3367],[-121.8805,37.337],[-121.8811,37.337],[-121.8817,37.3371],[-121.8822,37.3367],[-121.8826,37.3364],[-121.883,37.3361],[-121.8833,37.3357],[-121.8834,37.3352],[-121.883,37.3348],[-121.8828,37.3344],[-121.8827,37.3339],[-121.8823,37.3335],[-121.8817,37.3335],[-121.8811,37.3332],[-121.8805,37.3335],[-121.8801,37.3338],[-121.8793,37.3338],[-121.879,37.3342],[-121.8791,37.3348],[-121.879,37.3352]]]},"properties":{"name":"San Jose","nameEn":"San Jose","uniCount":1,"avgLat":37.3352,"avgLng":-121.8811,"cityId":"06-san-jose"}},{"type":"Feature","geometry":{"type":"Polygon","coordinates":[[[-120.6613,35.305],[-120.6613,35.3053],[-120.6614,35.3055],[-120.6618,35.3056],[-120.6619,35.3059],[-120.6622,35.3058],[-120.6625,35.306],[-120.6628,35.3059],[-120.6631,35.3059],[-120.6633,35.3056],[-120.6634,35.3054],[-120.6634,35.3052],[-120.6636,35.305],[-120.6636,35.3048],[-120.6635,35.3045],[-120.6633,35.3043],[-120.6631,35.3041],[-120.6628,35.3042],[-120.6625,35.304],[-120.6622,35.3041],[-120.6619,35.3041],[-120.6617,35.3043],[-120.6615,35.3045],[-120.6615,35.3048],[-120.6613,35.305]]]},"properties":{"name":"San Luis Obispo","nameEn":"San Luis Obispo","uniCount":1,"avgLat":35.305,"avgLng":-120.6625,"cityId":"06-san-luis-obispo"}},{"type":"Feature","geometry":{"type":"Polygon","coordinates":[[[-119.8478,34.414],[-119.848,34.4142],[-119.848,34.4144],[-119.848,34.4147],[-119.8484,34.4147],[-119.8486,34.4148],[-119.8489,34.415],[-119.8491,34.4148],[-119.8495,34.4149],[-119.8496,34.4146],[-119.8499,34.4145],[-119.8499,34.4142],[-119.85,34.414],[-119.85,34.4138],[-119.8498,34.4136],[-119.8498,34.4133],[-119.8495,34.4131],[-119.8492,34.4132],[-119.8489,34.4132],[-119.8486,34.4131],[-119.8484,34.4132],[-119.8481,34.4133],[-119.848,34.4136],[-119.8478,34.4138],[-119.8478,34.414]]]},"properties":{"name":"Santa Barbara","nameEn":"Santa Barbara","uniCount":1,"avgLat":34.414,"avgLng":-119.8489,"cityId":"06-santa-barbara"}},{"type":"Feature","geometry":{"type":"Polygon","coordinates":[[[-122.0286,36.9742],[-122.0286,36.9744],[-122.0288,36.9746],[-122.029,36.9748],[-122.0291,36.9751],[-122.0294,36.9752],[-122.0297,36.9751],[-122.03,36.9751],[-122.0303,36.9751],[-122.0305,36.9749],[-122.0307,36.9747],[-122.0308,36.9744],[-122.0307,36.9742],[-122.0307,36.974],[-122.0308,36.9737],[-122.0305,36.9736],[-122.0302,36.9735],[-122.03,36.9733],[-122.0297,36.9734],[-122.0294,36.9732],[-122.0292,36.9735],[-122.0289,36.9735],[-122.0287,36.9737],[-122.0288,36.974],[-122.0287,36.9742]]]},"properties":{"name":"Santa Cruz","nameEn":"Santa Cruz","uniCount":1,"avgLat":36.9742,"avgLng":-122.0297,"cityId":"06-santa-cruz"}},{"type":"Feature","geometry":{"type":"Polygon","coordinates":[[[-122.1691,37.4275],[-122.1691,37.4277],[-122.1691,37.4279],[-122.1694,37.428],[-122.1695,37.4282],[-122.1698,37.4282],[-122.17,37.4282],[-122.1702,37.4282],[-122.1705,37.4282],[-122.1707,37.4281],[-122.1708,37.4278],[-122.171,37.4277],[-122.1709,37.4275],[-122.1709,37.4273],[-122.1709,37.4271],[-122.1707,37.4269],[-122.1705,37.4268],[-122.1702,37.4269],[-122.17,37.4267],[-122.1698,37.4268],[-122.1695,37.4268],[-122.1694,37.427],[-122.1692,37.4271],[-122.169,37.4273],[-122.169,37.4275]]]},"properties":{"name":"Stanford","nameEn":"Stanford","uniCount":1,"avgLat":37.4275,"avgLng":-122.17,"cityId":"06-stanford"}}]}